IRIDIUM 63              
1 25286U 98021B   25200.91741174  .00000271  00000+0  85641-4 0  9993
2 25286  86.3949  68.3974 0002164  91.5938 268.5507 14.36563792428541
IRIDIUM 69              
1 25319U 98026A   25200.69073184  .00000317  00000+0  92598-4 0  9999
2 25319  86.3949  81.6863 0000475 340.9104  19.2077 14.40991833427742
IRIDIUM 71              
1 25320U 98026B   25200.90162176  .00000299  00000+0  86462-4 0  9997
2 25320  86.3945  76.2813 0002519  33.3405 326.7952 14.41178233428306
IRIDIUM 73              
1 25344U 98032C   25200.80252582  .00000410  00000+0  96843-4 0  9999
2 25344  86.4395  32.9576 0001672  99.6039 260.5356 14.51740613435291
IRIDIUM 82              
1 25467U 98051A   25200.92954901  .00018565  00000+0  51232-3 0  9995
2 25467  86.3653  93.6237 0083415 169.8867 190.4088 15.33419347428973
